[{"OBJECT_NAME":"STARLINK-31802","OBJECT_ID":"2024-082F","EPOCH":"2026-03-08T14:34:53.043168","MEAN_MOTION":15.27580835,"ECCENTRICITY":0.00017216,"INCLINATION":42.9999,"RA_OF_ASC_NODE":146.1577,"ARG_OF_PERICENTER":175.8159,"MEAN_ANOMALY":184.2708,"EPHEMERIS_TYPE":0,"CLASSIFICATION_TYPE":"U","NORAD_CAT_ID":59636,"ELEMENT_SET_NO":999,"REV_AT_EPOCH":10464,"BSTAR":3.0949437e-5,"MEAN_MOTION_DOT":5.89e-6,"MEAN_MOTION_DDOT":0},{"OBJECT_NAME":"CZ-6A DEB","OBJECT_ID":"2022-151DE","EPOCH":"2026-03-09T09:45:43.657920","MEAN_MOTION":15.34292219,"ECCENTRICITY":0.00393756,"INCLINATION":99.0022,"RA_OF_ASC_NODE":218.5596,"ARG_OF_PERICENTER":192.6197,"MEAN_ANOMALY":167.4059,"EPHEMERIS_TYPE":0,"CLASSIFICATION_TYPE":"U","NORAD_CAT_ID":54359,"ELEMENT_SET_NO":999,"REV_AT_EPOCH":10560,"BSTAR":0.0065240017,"MEAN_MOTION_DOT":0.00228186,"MEAN_MOTION_DDOT":0}]
